NORAD_CAT_ID,OBJECT_NAME,OBJECT_TYPE,EPOCH,MEAN_MOTION,ECCENTRICITY,INCLINATION,RA_OF_ASC_NODE,ARG_OF_PERICENTER,MEAN_ANOMALY,BSTAR,MEAN_MOTION_DOT,MEAN_MOTION_DDOT,TLE_LINE0,TLE_LINE1,TLE_LINE2,SEMIMAJOR_AXIS,PERIOD,APOGEE,PERIGEE,DECAYED
53035.0,STARLINK-4157,PAYLOAD,2023-06-01 12:51:13,15.08835277,7.52e-05,53.2167,297.8571,80.5214,279.5863,5.4133e-05,5.74e-06,0.0,0 STARLINK-4157,1 53035U 22076BB  23152.53557382  .00000574  00000-0  54133-4 0  9990,2 53035  53.2167 297.8571 0000752  80.5214 279.5863 15.08835277 50781,6917.895,95.438,540.28,539.24,0.0
53035.0,STARLINK-4157,PAYLOAD,2023-06-02 14:17:23,15.08834688,8.16e-05,53.2171,293.0976,94.7858,265.3227,-3.0405e-06,-3.36e-06,0.0,0 STARLINK-4157,1 53035U 22076BB  23153.59541654 -.00000336  00000-0 -30405-5 0  9997,2 53035  53.2171 293.0976 0000816  94.7858 265.3227 15.08834688 50484,6917.897,95.438,540.326,539.197,0.0
53035.0,STARLINK-4157,PAYLOAD,2023-06-02 15:52:46,15.0883987,8.71e-05,53.217,292.7993,102.8395,257.2694,-3.6474e-05,-8.68e-06,0.0,0 STARLINK-4157,1 53035U 22076BB  23153.66165434 -.00000868  00000-0 -36474-4 0  9994,2 53035  53.2170 292.7993 0000871 102.8395 257.2694 15.08839870 50954,6917.881,95.438,540.348,539.143,0.0
53035.0,STARLINK-4157,PAYLOAD,2023-06-03 09:22:01,15.08825164,9.48e-05,53.2171,289.5278,110.8287,249.2807,0.0001609,2.273e-05,0.0,0 STARLINK-4157,1 53035U 22076BB  23154.39029890  .00002273  00000-0  16090-3 0  9991,2 53035  53.2171 289.5278 0000948 110.8287 249.2807 15.08825164 51060,6917.926,95.438,540.447,539.135,0.0
53035.0,STARLINK-4157,PAYLOAD,2023-06-03 14:08:11,15.08830108,8.79e-05,53.2169,288.6358,110.2621,249.8466,0.00014337,1.994e-05,0.0,0 STARLINK-4157,1 53035U 22076BB  23154.58901679  .00001994  00000-0  14337-3 0  9997,2 53035  53.2169 288.6358 0000879 110.2621 249.8466 15.08830108 50638,6917.911,95.438,540.384,539.168,0.0
53035.0,STARLINK-4157,PAYLOAD,2023-06-03 15:43:33,15.08840365,9.38e-05,53.217,288.3383,111.6311,248.4781,2.9244e-05,1.78e-06,0.0,0 STARLINK-4157,1 53035U 22076BB  23154.65525313  .00000178  00000-0  29244-4 0  9999,2 53035  53.2170 288.3383 0000938 111.6311 248.4781 15.08840365 51106,6917.879,95.438,540.393,539.095,0.0
53035.0,STARLINK-4157,PAYLOAD,2023-06-04 13:58:57,15.08838545,9.56e-05,53.217,284.1758,110.5381,249.5714,9.3504e-05,1.201e-05,0.0,0 STARLINK-4157,1 53035U 22076BB  23155.58261419  .00001201  00000-0  93504-4 0  9994,2 53035  53.2170 284.1758 0000956 110.5381 249.5714 15.08838545 50789,6917.885,95.438,540.411,539.088,0.0
53035.0,STARLINK-4157,PAYLOAD,2023-06-04 15:34:20,15.08840928,8.38e-05,53.2173,283.8809,106.6382,253.4702,0.00012098,1.638e-05,0.0,0 STARLINK-4157,1 53035U 22076BB  23155.64885219  .00001638  00000-0  12098-3 0  9993,2 53035  53.2173 283.8809 0000838 106.6382 253.4702 15.08840928 50791,6917.878,95.437,540.322,539.163,0.0
53035.0,STARLINK-4157,PAYLOAD,2023-06-05 07:28:12,15.08837241,9.44e-05,53.2177,280.9086,107.4582,252.6513,7.4026e-05,8.91e-06,0.0,0 STARLINK-4157,1 53035U 22076BB  23156.31125645  .00000891  00000-0  74026-4 0  9998,2 53035  53.2177 280.9086 0000944 107.4582 252.6513 15.08837241 51357,6917.889,95.438,540.407,539.101,0.0
53035.0,STARLINK-4157,PAYLOAD,2023-06-05 13:49:45,15.08835923,7.21e-05,53.2163,279.717,97.6577,262.4497,4.0823e-05,3.62e-06,0.0,0 STARLINK-4157,1 53035U 22076BB  23156.57621927  .00000362  00000-0  40823-4 0  9991,2 53035  53.2163 279.7170 0000721  97.6577 262.4497 15.08835923 50937,6917.893,95.438,540.257,539.259,0.0
53035.0,STARLINK-4157,PAYLOAD,2023-06-05 15:25:08,15.08838902,7.11e-05,53.2164,279.4198,99.2456,260.8617,6.138e-05,6.89e-06,0.0,0 STARLINK-4157,1 53035U 22076BB  23156.64245679  .00000689  00000-0  61380-4 0  9998,2 53035  53.2164 279.4198 0000711  99.2456 260.8617 15.08838902 50945,6917.884,95.438,540.241,539.257,0.0
53035.0,STARLINK-4157,PAYLOAD,2023-06-06 08:54:23,15.08835387,6.79e-05,53.2167,276.1484,93.0107,267.0963,-1.9452e-05,-5.97e-06,0.0,0 STARLINK-4157,1 53035U 22076BB  23157.37110292 -.00000597  00000-0 -19452-4 0  9994,2 53035  53.2167 276.1484 0000679  93.0107 267.0963 15.08835387 51519,6917.894,95.438,540.229,539.29,0.0
53035.0,STARLINK-4157,PAYLOAD,2023-06-06 12:05:09,15.08837586,6.71e-05,53.2168,275.5542,87.0766,273.0303,-7.6368e-06,-4.09e-06,0.0,0 STARLINK-4157,1 53035U 22076BB  23157.50358143 -.00000409  00000-0 -76368-5 0  9990,2 53035  53.2168 275.5542 0000671  87.0766 273.0303 15.08837586 51073,6917.888,95.438,540.217,539.289,0.0
53035.0,STARLINK-4157,PAYLOAD,2023-06-06 18:26:41,15.08847963,7.15e-05,53.2167,274.364,90.9447,269.1627,8.0805e-05,9.99e-06,0.0,0 STARLINK-4157,1 53035U 22076BB  23157.76853164  .00000999  00000-0  80805-4 0  9993,2 53035  53.2167 274.3640 0000715  90.9447 269.1627 15.08847963 51576,6917.856,95.437,540.216,539.226,0.0
53035.0,STARLINK-4157,PAYLOAD,2023-06-07 00:48:14,15.08834371,8.09e-05,53.2171,273.1742,83.2425,276.8659,-3.658e-06,-3.46e-06,0.0,0 STARLINK-4157,1 53035U 22076BB  23158.03350304 -.00000346  00000-0 -36580-5 0  9992,2 53035  53.2171 273.1742 0000809  83.2425 276.8659 15.08834371 51610,6917.898,95.438,540.322,539.203,0.0
53035.0,STARLINK-4157,PAYLOAD,2023-06-07 08:45:10,15.08834436,7.34e-05,53.2169,271.6879,92.919,267.1886,2.7001e-05,1.42e-06,0.0,0 STARLINK-4157,1 53035U 22076BB  23158.36470276  .00000142  00000-0  27001-4 0  9998,2 53035  53.2169 271.6879 0000734  92.9190 267.1886 15.08834436 51206,6917.897,95.438,540.27,539.255,0.0
53035.0,STARLINK-4157,PAYLOAD,2023-06-07 16:42:05,15.08840194,8.71e-05,53.2164,270.2003,85.8914,274.2178,7.4071e-05,8.91e-06,0.0,0 STARLINK-4157,1 53035U 22076BB  23158.69589866  .00000891  00000-0  74071-4 0  9990,2 53035  53.2164 270.2003 0000871  85.8914 274.2178 15.08840194 51719,6917.88,95.438,540.347,539.142,0.0
53035.0,STARLINK-4157,PAYLOAD,2023-06-07 19:52:51,15.08845931,8.82e-05,53.2165,269.6067,79.0479,281.0612,8.7276e-05,1.102e-05,0.0,0 STARLINK-4157,1 53035U 22076BB  23158.82837455  .00001102  00000-0  87276-4 0  9992,2 53035  53.2165 269.6067 0000882  79.0479 281.0612 15.08845931 51279,6917.862,95.437,540.337,539.117,0.0
53035.0,STARLINK-4157,PAYLOAD,2023-06-08 11:46:43,15.08837593,7.6e-05,53.2173,266.6327,80.4574,279.6504,7.2911e-05,8.73e-06,0.0,0 STARLINK-4157,1 53035U 22076BB  23159.49078077  .00000873  00000-0  72911-4 0  9997,2 53035  53.2173 266.6327 0000760  80.4574 279.6504 15.08837593 51370,6917.888,95.438,540.279,539.227,0.0
53035.0,STARLINK-4157,PAYLOAD,2023-06-08 13:22:06,15.08843434,6.34e-05,53.2173,266.3347,83.0071,277.0993,4.2419e-05,3.88e-06,0.0,0 STARLINK-4157,1 53035U 22076BB  23159.55701765  .00000388  00000-0  42419-4 0  9992,2 53035  53.2173 266.3347 0000634  83.0071 277.0993 15.08843434 51847,6917.87,95.437,540.173,539.296,0.0
53035.0,STARLINK-4157,PAYLOAD,2023-06-08 19:43:38,15.08853053,7.64e-05,53.2166,265.145,83.6118,276.4961,0.00010931,1.453e-05,0.0,0 STARLINK-4157,1 53035U 22076BB  23159.82196826  .00001453  00000-0  10931-3 0  9995,2 53035  53.2166 265.1450 0000764  83.6118 276.4961 15.08853053 51883,6917.84,95.437,540.234,539.177,0.0
53035.0,STARLINK-4157,PAYLOAD,2023-06-09 06:51:21,15.08834382,0.00018,53.2128,263.0617,98.7519,261.3677,2.9379e-05,1.79e-06,0.0,0 STARLINK-4157,1 53035U 22076BB  23160.28566520  .00000179  00000-0  29379-4 0  9990,2 53035  53.2128 263.0617 0001800  98.7519 261.3677 15.08834382 51956,6917.898,95.438,541.008,538.517,0.0
53035.0,STARLINK-4157,PAYLOAD,2023-06-09 13:12:53,15.08834415,0.0001678,53.2117,261.872,99.7721,260.3461,8.5045e-05,1.066e-05,0.0,0 STARLINK-4157,1 53035U 22076BB  23160.55062367  .00001066  00000-0  85045-4 0  9998,2 53035  53.2117 261.8720 0001678  99.7721 260.3461 15.08834415 51535,6917.897,95.438,540.923,538.602,0.0
53035.0,STARLINK-4157,PAYLOAD,2023-06-09 16:23:40,15.08837891,9.48e-05,53.2159,261.2792,93.5459,266.5642,-4.0205e-06,-3.52e-06,0.0,0 STARLINK-4157,1 53035U 22076BB  23160.68310450 -.00000352  00000-0 -40205-5 0  9990,2 53035  53.2159 261.2792 0000948  93.5459 266.5642 15.08837891 51555,6917.887,95.438,540.408,539.096,0.0
53035.0,STARLINK-4157,PAYLOAD,2023-06-10 09:52:54,15.08842062,9.83e-05,53.2162,258.0087,87.2872,272.8233,6.085e-05,6.81e-06,0.0,0 STARLINK-4157,1 53035U 22076BB  23161.41174091  .00000681  00000-0  60850-4 0  9991,2 53035  53.2162 258.0087 0000983  87.2872 272.8233 15.08842062 52124,6917.874,95.437,540.419,539.059,0.0
53035.0,STARLINK-4157,PAYLOAD,2023-06-10 13:03:40,15.08843333,6.41e-05,53.2163,257.4149,83.3101,276.7964,0.00010123,1.324e-05,0.0,0 STARLINK-4157,1 53035U 22076BB  23161.54421811  .00001324  00000-0  10123-3 0  9992,2 53035  53.2163 257.4149 0000641  83.3101 276.7964 15.08843333 51686,6917.87,95.437,540.179,539.292,0.0
53035.0,STARLINK-4157,PAYLOAD,2023-06-10 16:14:26,15.08850088,9.01e-05,53.2164,256.8188,87.589,272.5205,5.0698e-05,5.19e-06,0.0,0 STARLINK-4157,1 53035U 22076BB  23161.67669572  .00000519  00000-0  50698-4 0  9991,2 53035  53.2164 256.8188 0000901  87.5890 272.5205 15.08850088 51703,6917.85,95.437,540.338,539.091,0.0
53035.0,STARLINK-4157,PAYLOAD,2023-06-11 01:46:45,15.0882927,8.24e-05,53.2154,255.0331,137.4119,222.6937,0.00021825,3.186e-05,0.0,0 STARLINK-4157,1 53035U 22076BB  23162.07414338  .00003186  00000-0  21825-3 0  9996,2 53035  53.2154 255.0331 0000824 137.4119 222.6937 15.08829270 52221,6917.913,95.438,540.348,539.208,0.0
53035.0,STARLINK-4157,PAYLOAD,2023-06-11 12:54:27,15.08838622,9.77e-05,53.2161,252.953,92.6266,267.4838,5.8342e-05,6.41e-06,0.0,0 STARLINK-4157,1 53035U 22076BB  23162.53782361  .00000641  00000-0  58342-4 0  9999,2 53035  53.2161 252.9530 0000977  92.6266 267.4838 15.08838622 51834,6917.885,95.438,540.425,539.074,0.0
53035.0,STARLINK-4157,PAYLOAD,2023-06-11 22:26:46,15.08843217,8.48e-05,53.2164,251.1701,85.5227,274.5862,7.7519e-05,9.46e-06,0.0,0 STARLINK-4157,1 53035U 22076BB  23162.93526024  .00000946  00000-0  77519-4 0  9990,2 53035  53.2164 251.1701 0000848  85.5227 274.5862 15.08843217 52353,6917.871,95.437,540.322,539.149,0.0
